start=new Date('2022-09-21T00:00:00.000Z').valueOf();
sats=[{"PERIOD":"94.580","SEMIMAJOR_AXIS":"6876.370","MEAN_ELEMENT_THEORY":"SGP4","COUNTRY_CODE":"US","ECCENTRICITY":"0.00016530","MEAN_MOTION_DOT":"-0.01061025","PERIAPSIS":"497.099","GP_ID":"213125489","SITE":"AFETR","CENTER_NAME":"EARTH","TLE_LINE1":"1 52874U 22062AW  22263.91668981 -.01061025  00000-0 -49324-1 0  9991","OBJECT_ID":"2022-062AW","ARG_OF_PERICENTER":"48.5801","OBJECT_NAME":"STARLINK-4210","REF_FRAME":"TEME","INCLINATION":"53.2174","MEAN_MOTION":"15.22523086","FILE":"3578945","ELEMENT_SET_NO":"999","RCS_SIZE":"LARGE","APOAPSIS":"499.372","TIME_SYSTEM":"UTC","MEAN_MOTION_DDOT":"0.0000000000000","EPOCH":"2022-09-20T22:00:01.999584","REV_AT_EPOCH":"130","LAUNCH_DATE":"2022-06-17","EPHEMERIS_TYPE":"0","BSTAR":"-0.04932400000000","TLE_LINE2":"2 52874  53.2174 296.7253 0001653  48.5801 151.4204 15.22523086  1300","CLASSIFICATION_TYPE":"U","RA_OF_ASC_NODE":"296.7253","OBJECT_TYPE":"PAYLOAD","NORAD_CAT_ID":"52874","MEAN_ANOMALY":"151.4204","DECAY_DATE":null},{"CLASSIFICATION_TYPE":"U","OBJECT_TYPE":"PAYLOAD","RA_OF_ASC_NODE":"296.7474","NORAD_CAT_ID":"52875","MEAN_ANOMALY":"206.2036","DECAY_DATE":null,"BSTAR":"-0.04761200000000","TLE_LINE2":"2 52875  53.2175 296.7474 0001608  47.1508 206.2036 15.23703962  1302","REV_AT_EPOCH":"130","LAUNCH_DATE":"2022-06-17","EPHEMERIS_TYPE":"0","MEAN_MOTION_DDOT":"0.0000000000000","RCS_SIZE":"LARGE","APOAPSIS":"495.787","EPOCH":"2022-09-20T22:00:01.999584","TIME_SYSTEM":"UTC","MEAN_MOTION":"15.23703962","FILE":"3578945","ELEMENT_SET_NO":"999","INCLINATION":"53.2175","REF_FRAME":"TEME","CENTER_NAME":"EARTH","TLE_LINE1":"1 52875U 22062AX  22263.91668981 -.01060942  00000-0 -47612-1 0  9997","OBJECT_ID":"2022-062AX","OBJECT_NAME":"STARLINK-4193","ARG_OF_PERICENTER":"47.1508","SITE":"AFETR","GP_ID":"213125649","PERIAPSIS":"493.577","COUNTRY_CODE":"US","ECCENTRICITY":"0.00016080","MEAN_MOTION_DOT":"-0.01060942","PERIOD":"94.507","MEAN_ELEMENT_THEORY":"SGP4","SEMIMAJOR_AXIS":"6872.817"},{"REV_AT_EPOCH":"130","EPHEMERIS_TYPE":"0","LAUNCH_DATE":"2022-06-17","CLASSIFICATION_TYPE":"U","OBJECT_TYPE":"PAYLOAD","RA_OF_ASC_NODE":"296.7364","NORAD_CAT_ID":"52876","MEAN_ANOMALY":"180.6995","DECAY_DATE":null,"BSTAR":"-0.04845800000000","TLE_LINE2":"2 52876  53.2174 296.7364 0001673  46.2534 180.6995 15.23113507  1300","MEAN_MOTION":"15.23113507","FILE":"3578945","ELEMENT_SET_NO":"999","INCLINATION":"53.2174","MEAN_MOTION_DDOT":"0.0000000000000","RCS_SIZE":"LARGE","APOAPSIS":"497.608","TIME_SYSTEM":"UTC","EPOCH":"2022-09-20T22:00:01.999584","SITE":"AFETR","REF_FRAME":"TEME","CENTER_NAME":"EARTH","TLE_LINE1":"1 52876U 22062AY  22263.91668981 -.01060913  00000-0 -48458-1 0  9995","OBJECT_ID":"2022-062AY","ARG_OF_PERICENTER":"46.2534","OBJECT_NAME":"STARLINK-4200","COUNTRY_CODE":"US","ECCENTRICITY":"0.00016730","MEAN_MOTION_DOT":"-0.01060913","PERIOD":"94.543","SEMIMAJOR_AXIS":"6874.593","MEAN_ELEMENT_THEORY":"SGP4","GP_ID":"213126381","PERIAPSIS":"495.308"},{"REV_AT_EPOCH":"130","EPHEMERIS_TYPE":"0","LAUNCH_DATE":"2022-06-17","BSTAR":"-0.04469400000000","TLE_LINE2":"2 52877  53.2175 296.7859 0001497  42.7691 296.9124 15.25835640  1306","CLASSIFICATION_TYPE":"U","NORAD_CAT_ID":"52877","OBJECT_TYPE":"PAYLOAD","RA_OF_ASC_NODE":"296.7859","MEAN_ANOMALY":"296.9124","DECAY_DATE":null,"INCLINATION":"53.2175","MEAN_MOTION":"15.25835640","FILE":"3578945","ELEMENT_SET_NO":"999","TIME_SYSTEM":"UTC","RCS_SIZE":"LARGE","APOAPSIS":"489.307","MEAN_MOTION_DDOT":"0.0000000000000","EPOCH":"2022-09-20T22:00:01.999584","SITE":"AFETR","CENTER_NAME":"EARTH","TLE_LINE1":"1 52877U 22062AZ  22263.91668981 -.01061909  00000-0 -44694-1 0  9990","OBJECT_ID":"2022-062AZ","ARG_OF_PERICENTER":"42.7691","OBJECT_NAME":"STARLINK-4214","REF_FRAME":"TEME","PERIOD":"94.375","SEMIMAJOR_AXIS":"6866.414","MEAN_ELEMENT_THEORY":"SGP4","COUNTRY_CODE":"US","ECCENTRICITY":"0.00014970","MEAN_MOTION_DOT":"-0.01061909","PERIAPSIS":"487.251","GP_ID":"213125808"},{"GP_ID":"213125905","PERIAPSIS":"492.687","ECCENTRICITY":"0.00016120","COUNTRY_CODE":"US","MEAN_MOTION_DOT":"-0.01061017","MEAN_ELEMENT_THEORY":"SGP4","SEMIMAJOR_AXIS":"6871.929","PERIOD":"94.488","REF_FRAME":"TEME","CENTER_NAME":"EARTH","OBJECT_NAME":"STARLINK-4171","ARG_OF_PERICENTER":"45.3154","OBJECT_ID":"2022-062BA","TLE_LINE1":"1 52878U 22062BA  22263.91668981 -.01061017  00000-0 -47196-1 0  9991","SITE":"AFETR","RCS_SIZE":"LARGE","APOAPSIS":"494.902","MEAN_MOTION_DDOT":"0.0000000000000","TIME_SYSTEM":"UTC","EPOCH":"2022-09-20T22:00:01.999584","FILE":"3578945","MEAN_MOTION":"15.23999207","ELEMENT_SET_NO":"999","INCLINATION":"53.2175","OBJECT_TYPE":"PAYLOAD","NORAD_CAT_ID":"52878","RA_OF_ASC_NODE":"296.7526","CLASSIFICATION_TYPE":"U","DECAY_DATE":null,"MEAN_ANOMALY":"221.0332","BSTAR":"-0.04719600000000","TLE_LINE2":"2 52878  53.2175 296.7526 0001612  45.3154 221.0332 15.23999207  1308","LAUNCH_DATE":"2022-06-17","EPHEMERIS_TYPE":"0","REV_AT_EPOCH":"130"},{"GP_ID":"213126064","PERIAPSIS":"484.572","ECCENTRICITY":"0.00015310","COUNTRY_CODE":"US","MEAN_MOTION_DOT":"-0.01062596","SEMIMAJOR_AXIS":"6863.758","MEAN_ELEMENT_THEORY":"SGP4","PERIOD":"94.320","REF_FRAME":"TEME","CENTER_NAME":"EARTH","ARG_OF_PERICENTER":"40.1883","OBJECT_NAME":"STARLINK-4139","OBJECT_ID":"2022-062BB","TLE_LINE1":"1 52879U 22062BB  22263.91668981 -.01062596  00000-0 -43536-1 0  9999","SITE":"AFETR","RCS_SIZE":"LARGE","MEAN_MOTION_DDOT":"0.0000000000000","APOAPSIS":"486.674","TIME_SYSTEM":"UTC","EPOCH":"2022-09-20T22:00:01.999584","FILE":"3578945","MEAN_MOTION":"15.26721548","ELEMENT_SET_NO":"999","INCLINATION":"53.2175","OBJECT_TYPE":"PAYLOAD","RA_OF_ASC_NODE":"296.7996","NORAD_CAT_ID":"52879","CLASSIFICATION_TYPE":"U","DECAY_DATE":null,"MEAN_ANOMALY":"335.0806","BSTAR":"-0.04353600000000","TLE_LINE2":"2 52879  53.2175 296.7996 0001531  40.1883 335.0806 15.26721548  1308","LAUNCH_DATE":"2022-06-17","EPHEMERIS_TYPE":"0","REV_AT_EPOCH":"130"},{"ECCENTRICITY":"0.00014190","COUNTRY_CODE":"US","MEAN_MOTION_DOT":"-0.01062317","MEAN_ELEMENT_THEORY":"SGP4","SEMIMAJOR_AXIS":"6864.643","PERIOD":"94.338","GP_ID":"213126603","PERIAPSIS":"485.534","SITE":"AFETR","REF_FRAME":"TEME","CENTER_NAME":"EARTH","OBJECT_NAME":"STARLINK-4186","ARG_OF_PERICENTER":"45.8036","OBJECT_ID":"2022-062BC","TLE_LINE1":"1 52880U 22062BC  22263.91668981 -.01062317  00000-0 -43918-1 0  9996","FILE":"3578945","MEAN_MOTION":"15.26426225","ELEMENT_SET_NO":"999","INCLINATION":"53.2175","RCS_SIZE":"LARGE","MEAN_MOTION_DDOT":"0.0000000000000","APOAPSIS":"487.482","TIME_SYSTEM":"UTC","EPOCH":"2022-09-20T22:00:01.999584","LAUNCH_DATE":"2022-06-17","EPHEMERIS_TYPE":"0","REV_AT_EPOCH":"130","NORAD_CAT_ID":"52880","OBJECT_TYPE":"PAYLOAD","RA_OF_ASC_NODE":"296.7950","CLASSIFICATION_TYPE":"U","DECAY_DATE":null,"MEAN_ANOMALY":"317.7406","BSTAR":"-0.04391800000000","TLE_LINE2":"2 52880  53.2175 296.7950 0001419  45.8036 317.7406 15.26426225  1304"},{"LAUNCH_DATE":"2022-06-17","EPHEMERIS_TYPE":"0","REV_AT_EPOCH":"130","NORAD_CAT_ID":"52881","OBJECT_TYPE":"PAYLOAD","RA_OF_ASC_NODE":"296.7905","CLASSIFICATION_TYPE":"U","DECAY_DATE":null,"MEAN_ANOMALY":"311.7887","BSTAR":"-0.04430600000000","TLE_LINE2":"2 52881  53.2175 296.7905 0001546  39.8930 311.7887 15.26130948  1303","FILE":"3578945","MEAN_MOTION":"15.26130948","ELEMENT_SET_NO":"999","INCLINATION":"53.2175","RCS_SIZE":"LARGE","EPOCH":"2022-09-20T22:00:01.999584","APOAPSIS":"488.455","MEAN_MOTION_DDOT":"0.0000000000000","TIME_SYSTEM":"UTC","SITE":"AFETR","REF_FRAME":"TEME","CENTER_NAME":"EARTH","ARG_OF_PERICENTER":"39.8930","OBJECT_NAME":"STARLINK-4192","TLE_LINE1":"1 52881U 22062BD  22263.91668981 -.01062161  00000-0 -44306-1 0  9996","OBJECT_ID":"2022-062BD","ECCENTRICITY":"0.00015460","COUNTRY_CODE":"US","MEAN_MOTION_DOT":"-0.01062161","MEAN_ELEMENT_THEORY":"SGP4","SEMIMAJOR_AXIS":"6865.529","PERIOD":"94.356","GP_ID":"213126222","PERIAPSIS":"486.332"},{"ELEMENT_SET_NO":"999","FILE":"3578945","MEAN_MOTION":"15.27016859","INCLINATION":"53.2175","EPOCH":"2022-09-20T22:00:01.999584","RCS_SIZE":"LARGE","APOAPSIS":"485.870","MEAN_MOTION_DDOT":"0.0000000000000","TIME_SYSTEM":"UTC","LAUNCH_DATE":"2022-06-17","EPHEMERIS_TYPE":"0","REV_AT_EPOCH":"130","DECAY_DATE":null,"MEAN_ANOMALY":"351.0985","OBJECT_TYPE":"PAYLOAD","NORAD_CAT_ID":"52882","RA_OF_ASC_NODE":"296.8038","CLASSIFICATION_TYPE":"U","TLE_LINE2":"2 52882  53.2175 296.8038 0001649  35.7576 351.0985 15.27016859  1308","BSTAR":"-0.04315500000000","MEAN_MOTION_DOT":"-0.01062840","ECCENTRICITY":"0.00016490","COUNTRY_CODE":"US","SEMIMAJOR_AXIS":"6862.873","MEAN_ELEMENT_THEORY":"SGP4","PERIOD":"94.302","GP_ID":"213125490","PERIAPSIS":"483.606","SITE":"AFETR","REF_FRAME":"TEME","ARG_OF_PERICENTER":"35.7576","OBJECT_NAME":"STARLINK-4181","OBJECT_ID":"2022-062BE","TLE_LINE1":"1 52882U 22062BE  22263.91668981 -.01062840  00000-0 -43155-1 0  9992","CENTER_NAME":"EARTH"},{"SITE":"AFETR","CENTER_NAME":"EARTH","TLE_LINE1":"1 52986U 22076A   22263.91668981 -.00065044  00000-0 -41008-2 0  9996","OBJECT_ID":"2022-076A","OBJECT_NAME":"STARLINK-4260","ARG_OF_PERICENTER":"40.8936","REF_FRAME":"TEME","PERIOD":"95.435","MEAN_ELEMENT_THEORY":"SGP4","SEMIMAJOR_AXIS":"6917.744","COUNTRY_CODE":"US","ECCENTRICITY":"0.00018930","MEAN_MOTION_DOT":"-0.00065044","PERIAPSIS":"538.300","GP_ID":"213125819","REV_AT_EPOCH":"130","EPHEMERIS_TYPE":"0","LAUNCH_DATE":"2022-07-07","BSTAR":"-0.00410080000000","TLE_LINE2":"2 52986  53.2156  16.4159 0001893  40.8936 247.2291 15.08884596  1306","CLASSIFICATION_TYPE":"U","RA_OF_ASC_NODE":"16.4159","OBJECT_TYPE":"PAYLOAD","NORAD_CAT_ID":"52986","MEAN_ANOMALY":"247.2291","DECAY_DATE":null,"INCLINATION":"53.2156","MEAN_MOTION":"15.08884596","FILE":"3578945","ELEMENT_SET_NO":"999","RCS_SIZE":"LARGE","TIME_SYSTEM":"UTC","APOAPSIS":"540.919","MEAN_MOTION_DDOT":"0.0000000000000","EPOCH":"2022-09-20T22:00:01.999584"}];
